COMMENT,ORIGINATOR,NORAD_CAT_ID,OBJECT_NAME,OBJECT_TYPE,CLASSIFICATION_TYPE,INTLDES,EPOCH,EPOCH_MICROSECONDS,MEAN_MOTION,ECCENTRICITY,INCLINATION,RA_OF_ASC_NODE,ARG_OF_PERICENTER,MEAN_ANOMALY,EPHEMERIS_TYPE,ELEMENT_SET_NO,REV_AT_EPOCH,BSTAR,MEAN_MOTION_DOT,MEAN_MOTION_DDOT,FILE,TLE_LINE0,TLE_LINE1,TLE_LINE2,OBJECT_ID,OBJECT_NUMBER,SEMIMAJOR_AXIS,PERIOD,APOGEE,PERIGEE,DECAYED,date
GENERATED VIA SPACETRACK.ORG API,18 SPCS,46300,SPACEBEE-21,PAYLOAD,U,20061AE,2023/3/10 3:24,344672,15.40821142,0.000258,97.4144,144.7824,240.0273,120.0718,0,999,13904,0.0042943,0.00179887,0,3856573,0 SPACEBEE-21,1 46300U 20061AE  23069.14199473  .00179887  00000-0  42943-2 0  9994,2 46300  97.4144 144.7824 0002580 240.0273 120.0718 15.40821142139041,2020-061AE,46300,6821.822,93.457,445.447,441.927,1,
GENERATED VIA SPACETRACK.ORG API,18 SPCS,46300,SPACEBEE-21,PAYLOAD,U,20061AE,2023/3/10 3:24,344672,15.40821142,0.000258,97.4144,144.7824,240.0273,120.0718,0,999,13904,0.0042943,0.00179887,0,3856975,0 SPACEBEE-21,1 46300U 20061AE  23069.14199473  .00179887  00000-0  42943-2 0  9994,2 46300  97.4144 144.7824 0002580 240.0273 120.0718 15.40821142139041,2020-061AE,46300,6821.822,93.457,445.447,441.927,1,
GENERATED VIA SPACETRACK.ORG API,18 SPCS,46300,SPACEBEE-21,PAYLOAD,U,20061AE,2023/3/11 2:47,233056,15.41144782,0.0002582,97.4137,145.7709,239.1082,120.9911,0,999,13919,0.0041257,0.00174554,0,3857251,0 SPACEBEE-21,1 46300U 20061AE  23070.11603279  .00174554  00000-0  41257-2 0  9990,2 46300  97.4137 145.7709 0002582 239.1082 120.9911 15.41144782139194,2020-061AE,46300,6820.866,93.437,444.493,440.97,1,
GENERATED VIA SPACETRACK.ORG API,18 SPCS,46300,SPACEBEE-21,PAYLOAD,U,20061AE,2023/3/11 10:34,622752,15.41250264,0.0002601,97.4136,146.1007,239.2736,120.8255,0,999,13924,0.0040882,0.00173547,0,3857581,0 SPACEBEE-21,1 46300U 20061AE  23070.44066693  .00173547  00000-0  40882-2 0  9993,2 46300  97.4136 146.1007 0002601 239.2736 120.8255 15.41250264139247,2020-061AE,46300,6820.555,93.431,444.194,440.646,1,
GENERATED VIA SPACETRACK.ORG API,18 SPCS,46300,SPACEBEE-21,PAYLOAD,U,20061AE,2023/3/11 15:15,862208,15.41301596,0.0002668,97.4135,146.2982,239.362,120.7363,0,999,13927,0.0035405,0.00150082,0,3857758,0 SPACEBEE-21,1 46300U 20061AE  23070.63543822  .00150082  00000-0  35405-2 0  9992,2 46300  97.4135 146.2982 0002668 239.3620 120.7363 15.41301596139272,2020-061AE,46300,6820.404,93.428,444.089,440.449,1,
GENERATED VIA SPACETRACK.ORG API,18 SPCS,46300,SPACEBEE-21,PAYLOAD,U,20061AE,2023/3/11 16:48,84128,15.41322734,0.0002615,97.4133,146.3644,239.8635,120.2353,0,999,13928,0.0034015,0.00144176,0,3857847,0 SPACEBEE-21,1 46300U 20061AE  23070.70035977  .00144176  00000-0  34015-2 0  9990,2 46300  97.4133 146.3644 0002615 239.8635 120.2353 15.41322734139281,2020-061AE,46300,6820.341,93.426,443.99,440.423,1,
GENERATED VIA SPACETRACK.ORG API,18 SPCS,46300,SPACEBEE-21,PAYLOAD,U,20061AE,2023/3/12 3:42,891424,15.41464265,0.0002628,97.4131,146.8253,239.3417,120.7571,0,999,13935,0.0036398,0.00155229,0,3858485,0 SPACEBEE-21,1 46300U 20061AE  23071.15479041  .00155229  00000-0  36398-2 0  9991,2 46300  97.4131 146.8253 0002628 239.3417 120.7571 15.41464265139358,2020-061AE,46300,6819.924,93.418,443.581,439.997,1,
GENERATED VIA SPACETRACK.ORG API,18 SPCS,46300,SPACEBEE-21,PAYLOAD,U,20061AE,2023/3/12 3:42,891424,15.41464265,0.0002628,97.4131,146.8253,239.3417,120.7571,0,999,13935,0.0036398,0.00155229,0,3858534,0 SPACEBEE-21,1 46300U 20061AE  23071.15479041  .00155229  00000-0  36398-2 0  9991,2 46300  97.4131 146.8253 0002628 239.3417 120.7571 15.41464265139358,2020-061AE,46300,6819.924,93.418,443.581,439.997,1,
GENERATED VIA SPACETRACK.ORG API,18 SPCS,46300,SPACEBEE-21,PAYLOAD,U,20061AE,2023/3/12 16:10,479680,15.41617641,0.0002541,97.4124,147.353,239.5937,120.5059,0,999,13943,0.0037529,0.0016099,0,3858743,0 SPACEBEE-21,1 46300U 20061AE  23071.67409120  .00160990  00000-0  37529-2 0  9997,2 46300  97.4124 147.3530 0002541 239.5937 120.5059 15.41617641139433,2020-061AE,46300,6819.472,93.408,443.069,439.604,1,
GENERATED VIA SPACETRACK.ORG API,18 SPCS,46300,SPACEBEE-21,PAYLOAD,U,20061AE,2023/3/13 4:38,327168,15.41769274,0.0002654,97.4125,147.8801,237.8969,122.202,0,999,13951,0.0029478,0.00126504,0,3858957,0 SPACEBEE-21,1 46300U 20061AE  23072.19333712  .00126504  00000-0  29478-2 0  9995,2 46300  97.4125 147.8801 0002654 237.8969 122.2020 15.41769274139517,2020-061AE,46300,6819.024,93.399,442.699,439.08,1,
GENERATED VIA SPACETRACK.ORG API,18 SPCS,46300,SPACEBEE-21,PAYLOAD,U,20061AE,2023/3/13 10:52,305440,15.41829231,0.0002685,97.4124,148.1442,238.0828,122.0158,0,999,13955,0.0029055,0.0012491,0,3859425,0 SPACEBEE-21,1 46300U 20061AE  23072.45294335  .00124910  00000-0  29055-2 0  9991,2 46300  97.4124 148.1442 0002685 238.0828 122.0158 15.41829231139556,2020-061AE,46300,6818.848,93.396,442.544,438.882,1,
GENERATED VIA SPACETRACK.ORG API,18 SPCS,46300,SPACEBEE-21,PAYLOAD,U,20061AE,2023/3/14 4:00,827584,15.42017101,0.0002796,97.4122,148.869,237.4289,122.6689,0,999,13966,0.0032087,0.00139074,0,3860373,0 SPACEBEE-21,1 46300U 20061AE  23073.16680356  .00139074  00000-0  32087-2 0  9998,2 46300  97.4122 148.8690 0002796 237.4289 122.6689 15.42017101139666,2020-061AE,46300,6818.294,93.384,442.065,438.252,1,
GENERATED VIA SPACETRACK.ORG API,18 SPCS,46300,SPACEBEE-21,PAYLOAD,U,20061AE,2023/3/14 14:54,228736,15.42144803,0.0002824,97.4123,149.3304,241.058,119.0385,0,999,13973,0.0035925,0.00156741,0,3860583,0 SPACEBEE-21,1 46300U 20061AE  23073.62103274  .00156741  00000-0  35925-2 0  9992,2 46300  97.4123 149.3304 0002824 241.0580 119.0385 15.42144803139733,2020-061AE,46300,6817.917,93.376,441.708,437.857,1,
GENERATED VIA SPACETRACK.ORG API,18 SPCS,46300,SPACEBEE-21,PAYLOAD,U,20061AE,2023/3/14 14:54,228736,15.42144803,0.0002824,97.4123,149.3304,241.058,119.0385,0,999,13973,0.0035925,0.00156741,0,3860643,0 SPACEBEE-21,1 46300U 20061AE  23073.62103274  .00156741  00000-0  35925-2 0  9992,2 46300  97.4123 149.3304 0002824 241.0580 119.0385 15.42144803139733,2020-061AE,46300,6817.917,93.376,441.708,437.857,1,
GENERATED VIA SPACETRACK.ORG API,18 SPCS,46300,SPACEBEE-21,PAYLOAD,U,20061AE,2023/3/15 4:55,933312,15.42348934,0.0002814,97.4129,149.9245,236.6638,123.434,0,999,13982,0.0036637,0.00161027,0,3860956,0 SPACEBEE-21,1 46300U 20061AE  23074.20497608  .00161027  00000-0  36637-2 0  9998,2 46300  97.4129 149.9245 0002814 236.6638 123.4340 15.42348934139823,2020-061AE,46300,6817.316,93.364,441.099,437.262,1,
GENERATED VIA SPACETRACK.ORG API,18 SPCS,46300,SPACEBEE-21,PAYLOAD,U,20061AE,2023/3/15 4:55,933312,15.42348934,0.0002814,97.4129,149.9245,236.6638,123.434,0,999,13982,0.0036637,0.00161027,0,3861350,0 SPACEBEE-21,1 46300U 20061AE  23074.20497608  .00161027  00000-0  36637-2 0  9998,2 46300  97.4129 149.9245 0002814 236.6638 123.4340 15.42348934139823,2020-061AE,46300,6817.316,93.364,441.099,437.262,1,
GENERATED VIA SPACETRACK.ORG API,18 SPCS,46300,SPACEBEE-21,PAYLOAD,U,20061AE,2023/3/16 4:16,448288,15.42677953,0.0002883,97.4136,150.9158,234.1282,125.9698,0,999,13997,0.0039553,0.00176112,0,3861915,0 SPACEBEE-21,1 46300U 20061AE  23075.17804917  .00176112  00000-0  39553-2 0  9991,2 46300  97.4136 150.9158 0002883 234.1282 125.9698 15.42677953139975,2020-061AE,46300,6816.347,93.344,440.177,436.246,1,
GENERATED VIA SPACETRACK.ORG API,18 SPCS,46300,SPACEBEE-21,PAYLOAD,U,20061AE,2023/3/16 10:30,170208,15.42755053,0.0002898,97.4129,151.1786,236.0616,124.0356,0,999,14001,0.0039154,0.00174753,0,3862295,0 SPACEBEE-21,1 46300U 20061AE  23075.43750197  .00174753  00000-0  39154-2 0  9996,2 46300  97.4129 151.1786 0002898 236.0616 124.0356 15.42755053140011,2020-061AE,46300,6816.119,93.34,439.96,436.009,1,
GENERATED VIA SPACETRACK.ORG API,18 SPCS,46300,SPACEBEE-21,PAYLOAD,U,20061AE,2023/3/16 15:10,99072,15.42793723,0.00029,97.4126,151.3763,237.298,122.7988,0,999,14004,0.0029215,0.00129781,0,3862540,0 SPACEBEE-21,1 46300U 20061AE  23075.63208448  .00129781  00000-0  29215-2 0  9993,2 46300  97.4126 151.3763 0002900 237.2980 122.7988 15.42793723140041,2020-061AE,46300,6816.006,93.337,439.847,435.894,1,
GENERATED VIA SPACETRACK.ORG API,18 SPCS,46300,SPACEBEE-21,PAYLOAD,U,20061AE,2023/3/16 15:10,99072,15.42793723,0.00029,97.4126,151.3763,237.298,122.7988,0,999,14004,0.0029215,0.00129781,0,3862592,0 SPACEBEE-21,1 46300U 20061AE  23075.63208448  .00129781  00000-0  29215-2 0  9993,2 46300  97.4126 151.3763 0002900 237.2980 122.7988 15.42793723140041,2020-061AE,46300,6816.006,93.337,439.847,435.894,1,
GENERATED VIA SPACETRACK.ORG API,18 SPCS,46300,SPACEBEE-21,PAYLOAD,U,20061AE,2023/3/17 11:24,321472,15.43000287,0.0002958,97.4128,152.2346,234.4275,125.6697,0,999,14017,0.0025851,0.00115408,0,3863278,0 SPACEBEE-21,1 46300U 20061AE  23076.47520048  .00115408  00000-0  25851-2 0  9992,2 46300  97.4128 152.2346 0002958 234.4275 125.6697 15.43000287140179,2020-061AE,46300,6815.397,93.325,439.278,435.246,1,
GENERATED VIA SPACETRACK.ORG API,18 SPCS,46300,SPACEBEE-21,PAYLOAD,U,20061AE,2023/3/17 11:24,321472,15.43000287,0.0002958,97.4128,152.2346,234.4275,125.6697,0,999,14017,0.0025851,0.00115408,0,3863419,0 SPACEBEE-21,1 46300U 20061AE  23076.47520048  .00115408  00000-0  25851-2 0  9992,2 46300  97.4128 152.2346 0002958 234.4275 125.6697 15.43000287140179,2020-061AE,46300,6815.397,93.325,439.278,435.246,1,
GENERATED VIA SPACETRACK.ORG API,18 SPCS,46300,SPACEBEE-21,PAYLOAD,U,20061AE,2023/3/17 22:17,880896,15.43114702,0.0003051,97.4128,152.6963,234.9058,125.1904,0,999,14024,0.0028619,0.00128483,0,3863544,0 SPACEBEE-21,1 46300U 20061AE  23076.92914214  .00128483  00000-0  28619-2 0  9996,2 46300  97.4128 152.6963 0003051 234.9058 125.1904 15.43114702140249,2020-061AE,46300,6815.06,93.318,439.005,434.846,1,
